[{"OBJECT_NAME":"COSMO-SKYMED 1","OBJECT_ID":"2007-023A","EPOCH":"2026-03-09T23:58:15.190752","MEAN_MOTION":14.96537365,"ECCENTRICITY":0.0001274,"INCLINATION":97.8873,"RA_OF_ASC_NODE":260.0329,"ARG_OF_PERICENTER":100.0972,"MEAN_ANOMALY":260.0392,"EPHEMERIS_TYPE":0,"CLASSIFICATION_TYPE":"U","NORAD_CAT_ID":31598,"ELEMENT_SET_NO":999,"REV_AT_EPOCH":1495,"BSTAR":0.00038631176,"MEAN_MOTION_DOT":4.334e-5,"MEAN_MOTION_DDOT":0},{"OBJECT_NAME":"STARLINK-5070","OBJECT_ID":"2023-021AC","EPOCH":"2026-03-09T17:33:18.636480","MEAN_MOTION":14.98340861,"ECCENTRICITY":0.00033787,"INCLINATION":70.0003,"RA_OF_ASC_NODE":184.5139,"ARG_OF_PERICENTER":265.7825,"MEAN_ANOMALY":94.2948,"EPHEMERIS_TYPE":0,"CLASSIFICATION_TYPE":"U","NORAD_CAT_ID":55654,"ELEMENT_SET_NO":999,"REV_AT_EPOCH":16879,"BSTAR":-0.000141652,"MEAN_MOTION_DOT":-1.783e-5,"MEAN_MOTION_DDOT":0}]
